{"type": "FeatureCollection", "features": [{"type": "Feature", "geometry": {"type": "Point", "coordinates": [121.504417, 25.025473]}, "properties": {"stop_id": "125208", "stop_name": "青年社區", "direction": "去程", "seq": 57, "mean_err": 271.0, "max_err": 271.0, "n_events": 1, "congestion_label": "極嚴重"}}, {"type": "Feature", "geometry": {"type": "Point", "coordinates": [121.61448946069, 25.0346121838879]}, "properties": {"stop_id": "34684", "stop_name": "凌雲站", "direction": "不分向", "seq": 4, "mean_err": 30.0, "max_err": 30.0, "n_events": 1, "congestion_label": "輕微"}}, {"type": "Feature", "geometry": {"type": "Point", "coordinates": [121.611345, 25.033428]}, "properties": {"stop_id": "34683", "stop_name": "中華科技大學", "direction": "不分向", "seq": 2, "mean_err": 32.0, "max_err": 32.0, "n_events": 1, "congestion_label": "中度"}}, {"type": "Feature", "geometry": {"type": "Point", "coordinates": [121.499894100772, 25.0232906952259]}, "properties": {"stop_id": "34741", "stop_name": "萬大國小", "direction": "去程", "seq": 1, "mean_err": 77.0, "max_err": 77.0, "n_events": 1, "congestion_label": "嚴重"}}, {"type": "Feature", "geometry": {"type": "Point", "coordinates": [121.506437964545, 25.0273435686053]}, "properties": {"stop_id": "34734", "stop_name": "中華南海路口", "direction": "去程", "seq": 53, "mean_err": -15.0, "max_err": -15.0, "n_events": 1, "congestion_label": "準時"}}, {"type": "Feature", "geometry": {"type": "Point", "coordinates": [121.505465333891, 25.028384629531]}, "properties": {"stop_id": "34733", "stop_name": "南機場公寓", "direction": "去程", "seq": 52, "mean_err": 7.0, "max_err": 7.0, "n_events": 1, "congestion_label": "輕微"}}, {"type": "Feature", "geometry": {"type": "Point", "coordinates": [121.50408568455, 25.0305627556618]}, "properties": {"stop_id": "34732", "stop_name": "廈安里", "direction": "去程", "seq": 51, "mean_err": -39.0, "max_err": -39.0, "n_events": 1, "congestion_label": "準時"}}, {"type": "Feature", "geometry": {"type": "Point", "coordinates": [121.506507520259, 25.0364933609706]}, "properties": {"stop_id": "34730", "stop_name": "聯合醫院和平院區", "direction": "去程", "seq": 49, "mean_err": 9.0, "max_err": 9.0, "n_events": 1, "congestion_label": "輕微"}}, {"type": "Feature", "geometry": {"type": "Point", "coordinates": [121.5020920746352, 25.022116707019617]}, "properties": {"stop_id": "34739", "stop_name": "青年路派出所", "direction": "去程", "seq": 60, "mean_err": -2.0, "max_err": -2.0, "n_events": 1, "congestion_label": "準時"}}, {"type": "Feature", "geometry": {"type": "Point", "coordinates": [121.5025183827621, 25.02249119957861]}, "properties": {"stop_id": "34738", "stop_name": "青年路", "direction": "去程", "seq": 59, "mean_err": 307.0, "max_err": 307.0, "n_events": 1, "congestion_label": "極嚴重"}}, {"type": "Feature", "geometry": {"type": "Point", "coordinates": [121.50598380051417, 25.02602624821444]}, "properties": {"stop_id": "34735", "stop_name": "青年公園(青年)", "direction": "去程", "seq": 56, "mean_err": 20.0, "max_err": 20.0, "n_events": 1, "congestion_label": "輕微"}}, {"type": "Feature", "geometry": {"type": "Point", "coordinates": [121.53146493118, 25.0441330065154]}, "properties": {"stop_id": "34723", "stop_name": "臺北科技大學", "direction": "去程", "seq": 42, "mean_err": 113.0, "max_err": 113.0, "n_events": 1, "congestion_label": "嚴重"}}, {"type": "Feature", "geometry": {"type": "Point", "coordinates": [121.5363796, 25.04706738]}, "properties": {"stop_id": "34722", "stop_name": "建國啤酒廠", "direction": "去程", "seq": 41, "mean_err": 96.0, "max_err": 96.0, "n_events": 1, "congestion_label": "嚴重"}}, {"type": "Feature", "geometry": {"type": "Point", "coordinates": [121.537798642451, 25.0484436106169]}, "properties": {"stop_id": "34720", "stop_name": "中山女高", "direction": "去程", "seq": 40, "mean_err": 99.0, "max_err": 99.0, "n_events": 1, "congestion_label": "嚴重"}}, {"type": "Feature", "geometry": {"type": "Point", "coordinates": [121.506903709074, 25.0378687908132]}, "properties": {"stop_id": "34729", "stop_name": "小南門", "direction": "去程", "seq": 48, "mean_err": 9.0, "max_err": 9.0, "n_events": 1, "congestion_label": "輕微"}}, {"type": "Feature", "geometry": {"type": "Point", "coordinates": [121.508266771006, 25.0425165606871]}, "properties": {"stop_id": "34728", "stop_name": "捷運西門站", "direction": "去程", "seq": 47, "mean_err": -3.0, "max_err": -3.0, "n_events": 1, "congestion_label": "準時"}}, {"type": "Feature", "geometry": {"type": "Point", "coordinates": [121.509144127644, 25.0455115050969]}, "properties": {"stop_id": "34727", "stop_name": "中華路北站", "direction": "去程", "seq": 46, "mean_err": -3.0, "max_err": -3.0, "n_events": 1, "congestion_label": "準時"}}, {"type": "Feature", "geometry": {"type": "Point", "coordinates": [121.5167218, 25.0465408]}, "properties": {"stop_id": "34726", "stop_name": "臺北車站(忠孝)", "direction": "去程", "seq": 45, "mean_err": 3.0, "max_err": 3.0, "n_events": 1, "congestion_label": "輕微"}}, {"type": "Feature", "geometry": {"type": "Point", "coordinates": [121.56375105137309, 25.048925534354606]}, "properties": {"stop_id": "34712", "stop_name": "八德東寧路口", "direction": "去程", "seq": 32, "mean_err": -16.0, "max_err": -16.0, "n_events": 1, "congestion_label": "準時"}}, {"type": "Feature", "geometry": {"type": "Point", "coordinates": [121.566655901166, 25.0491343107615]}, "properties": {"stop_id": "34711", "stop_name": "新聚里", "direction": "去程", "seq": 31, "mean_err": 6.0, "max_err": 6.0, "n_events": 1, "congestion_label": "輕微"}}, {"type": "Feature", "geometry": {"type": "Point", "coordinates": [121.54094, 25.04838]}, "properties": {"stop_id": "34719", "stop_name": "長安龍江路口", "direction": "去程", "seq": 39, "mean_err": 46.0, "max_err": 46.0, "n_events": 1, "congestion_label": "中度"}}, {"type": "Feature", "geometry": {"type": "Point", "coordinates": [121.542821, 25.04833589]}, "properties": {"stop_id": "34718", "stop_name": "長安復興路口", "direction": "去程", "seq": 38, "mean_err": 46.0, "max_err": 46.0, "n_events": 1, "congestion_label": "中度"}}, {"type": "Feature", "geometry": {"type": "Point", "coordinates": [121.54531, 25.04829]}, "properties": {"stop_id": "34717", "stop_name": "臺安醫院", "direction": "去程", "seq": 37, "mean_err": -6.0, "max_err": 2.0, "n_events": 2, "congestion_label": "準時"}}, {"type": "Feature", "geometry": {"type": "Point", "coordinates": [121.550231, 25.048279]}, "properties": {"stop_id": "34716", "stop_name": "臺視", "direction": "去程", "seq": 36, "mean_err": 27.5, "max_err": 49.0, "n_events": 2, "congestion_label": "輕微"}}, {"type": "Feature", "geometry": {"type": "Point", "coordinates": [121.55385352920746, 25.048314127211775]}, "properties": {"stop_id": "34715", "stop_name": "美仁里", "direction": "去程", "seq": 35, "mean_err": 4.0, "max_err": 4.0, "n_events": 1, "congestion_label": "輕微"}}, {"type": "Feature", "geometry": {"type": "Point", "coordinates": [121.55669744493079, 25.048204076570904]}, "properties": {"stop_id": "34714", "stop_name": "光復路口", "direction": "去程", "seq": 34, "mean_err": 23.0, "max_err": 23.0, "n_events": 1, "congestion_label": "輕微"}}, {"type": "Feature", "geometry": {"type": "Point", "coordinates": [121.560263, 25.048547]}, "properties": {"stop_id": "34713", "stop_name": "臺北市區監理所", "direction": "去程", "seq": 33, "mean_err": -16.0, "max_err": -16.0, "n_events": 1, "congestion_label": "準時"}}, {"type": "Feature", "geometry": {"type": "Point", "coordinates": [121.595509916336, 25.0544903819023]}, "properties": {"stop_id": "34701", "stop_name": "土地公廟", "direction": "去程", "seq": 21, "mean_err": -25.0, "max_err": -25.0, "n_events": 1, "congestion_label": "準時"}}, {"type": "Feature", "geometry": {"type": "Point", "coordinates": [121.598727, 25.05384]}, "properties": {"stop_id": "34700", "stop_name": "東明里/臺北流行音樂中心", "direction": "去程", "seq": 20, "mean_err": -25.0, "max_err": -25.0, "n_events": 1, "congestion_label": "準時"}}, {"type": "Feature", "geometry": {"type": "Point", "coordinates": [121.57491400582, 25.0500731024231]}, "properties": {"stop_id": "34708", "stop_name": "松山農會", "direction": "去程", "seq": 28, "mean_err": 82.0, "max_err": 82.0, "n_events": 1, "congestion_label": "嚴重"}}, {"type": "Feature", "geometry": {"type": "Point", "coordinates": [121.576598, 25.050168]}, "properties": {"stop_id": "34707", "stop_name": "松山車站(八德)", "direction": "去程", "seq": 27, "mean_err": 94.0, "max_err": 94.0, "n_events": 1, "congestion_label": "嚴重"}}, {"type": "Feature", "geometry": {"type": "Point", "coordinates": [121.585050803739, 25.0526502598819]}, "properties": {"stop_id": "34705", "stop_name": "松山磚廠", "direction": "去程", "seq": 25, "mean_err": 88.0, "max_err": 88.0, "n_events": 1, "congestion_label": "嚴重"}}, {"type": "Feature", "geometry": {"type": "Point", "coordinates": [121.587762, 25.053169]}, "properties": {"stop_id": "34704", "stop_name": "南港路三段", "direction": "去程", "seq": 24, "mean_err": 50.0, "max_err": 50.0, "n_events": 1, "congestion_label": "中度"}}, {"type": "Feature", "geometry": {"type": "Point", "coordinates": [121.589992575868, 25.0535036880317]}, "properties": {"stop_id": "34703", "stop_name": "西新里(新新公園)", "direction": "去程", "seq": 23, "mean_err": 50.0, "max_err": 50.0, "n_events": 1, "congestion_label": "中度"}}, {"type": "Feature", "geometry": {"type": "Point", "coordinates": [121.59255973649874, 25.05440689628416]}, "properties": {"stop_id": "34702", "stop_name": "玉成國小", "direction": "去程", "seq": 22, "mean_err": 26.0, "max_err": 50.0, "n_events": 2, "congestion_label": "輕微"}}, {"type": "Feature", "geometry": {"type": "Point", "coordinates": [121.6147203, 25.03474253]}, "properties": {"stop_id": "34792", "stop_name": "凌雲站", "direction": "回程", "seq": 52, "mean_err": 26.5, "max_err": 101.0, "n_events": 2, "congestion_label": "輕微"}}, {"type": "Feature", "geometry": {"type": "Point", "coordinates": [121.6161708, 25.03500483]}, "properties": {"stop_id": "34791", "stop_name": "九如里二", "direction": "回程", "seq": 51, "mean_err": 34.0, "max_err": 106.0, "n_events": 2, "congestion_label": "中度"}}, {"type": "Feature", "geometry": {"type": "Point", "coordinates": [121.616893, 25.036259]}, "properties": {"stop_id": "34790", "stop_name": "凌雲五村", "direction": "回程", "seq": 50, "mean_err": 34.0, "max_err": 106.0, "n_events": 2, "congestion_label": "中度"}}, {"type": "Feature", "geometry": {"type": "Point", "coordinates": [121.613597939232, 25.0551240859182]}, "properties": {"stop_id": "34781", "stop_name": "南港", "direction": "回程", "seq": 41, "mean_err": 34.0, "max_err": 34.0, "n_events": 1, "congestion_label": "中度"}}, {"type": "Feature", "geometry": {"type": "Point", "coordinates": [121.61066212694543, 25.05493375102052]}, "properties": {"stop_id": "34780", "stop_name": "南港高工(南港路)", "direction": "回程", "seq": 40, "mean_err": 24.5, "max_err": 34.0, "n_events": 2, "congestion_label": "輕微"}}, {"type": "Feature", "geometry": {"type": "Point", "coordinates": [121.6169015, 25.03813813]}, "properties": {"stop_id": "34789", "stop_name": "九如里一", "direction": "回程", "seq": 49, "mean_err": -38.0, "max_err": -38.0, "n_events": 1, "congestion_label": "準時"}}, {"type": "Feature", "geometry": {"type": "Point", "coordinates": [121.617338, 25.039528]}, "properties": {"stop_id": "34788", "stop_name": "胡適公園", "direction": "回程", "seq": 48, "mean_err": 135.0, "max_err": 135.0, "n_events": 1, "congestion_label": "極嚴重"}}, {"type": "Feature", "geometry": {"type": "Point", "coordinates": [121.61648, 25.04313]}, "properties": {"stop_id": "34787", "stop_name": "中研院", "direction": "回程", "seq": 47, "mean_err": 157.0, "max_err": 157.0, "n_events": 1, "congestion_label": "極嚴重"}}, {"type": "Feature", "geometry": {"type": "Point", "coordinates": [121.61558513647303, 25.044722099556466]}, "properties": {"stop_id": "34786", "stop_name": "中研新村", "direction": "回程", "seq": 46, "mean_err": 69.0, "max_err": 69.0, "n_events": 1, "congestion_label": "嚴重"}}, {"type": "Feature", "geometry": {"type": "Point", "coordinates": [121.615363, 25.047199]}, "properties": {"stop_id": "34785", "stop_name": "圓拱橋", "direction": "回程", "seq": 45, "mean_err": 99.0, "max_err": 99.0, "n_events": 1, "congestion_label": "嚴重"}}, {"type": "Feature", "geometry": {"type": "Point", "coordinates": [121.615625, 25.049543]}, "properties": {"stop_id": "34784", "stop_name": "南港水廠", "direction": "回程", "seq": 44, "mean_err": 79.0, "max_err": 79.0, "n_events": 1, "congestion_label": "嚴重"}}, {"type": "Feature", "geometry": {"type": "Point", "coordinates": [121.615865875754, 25.0518036904539]}, "properties": {"stop_id": "34783", "stop_name": "誠正國中", "direction": "回程", "seq": 43, "mean_err": 79.0, "max_err": 79.0, "n_events": 1, "congestion_label": "嚴重"}}, {"type": "Feature", "geometry": {"type": "Point", "coordinates": [121.616456, 25.054699]}, "properties": {"stop_id": "34782", "stop_name": "南港展覽館", "direction": "回程", "seq": 42, "mean_err": 67.0, "max_err": 67.0, "n_events": 1, "congestion_label": "嚴重"}}, {"type": "Feature", "geometry": {"type": "Point", "coordinates": [121.603021736172, 25.053655363078]}, "properties": {"stop_id": "34778", "stop_name": "台肥新村", "direction": "回程", "seq": 38, "mean_err": 86.0, "max_err": 86.0, "n_events": 1, "congestion_label": "嚴重"}}, {"type": "Feature", "geometry": {"type": "Point", "coordinates": [121.60075620256, 25.0533242413246]}, "properties": {"stop_id": "34777", "stop_name": "南港路二段178巷口", "direction": "回程", "seq": 37, "mean_err": 86.0, "max_err": 86.0, "n_events": 1, "congestion_label": "嚴重"}}, {"type": "Feature", "geometry": {"type": "Point", "coordinates": [121.598139533007, 25.0538414991689]}, "properties": {"stop_id": "34776", "stop_name": "東明里/臺北流行音樂中心", "direction": "回程", "seq": 36, "mean_err": 47.0, "max_err": 47.0, "n_events": 1, "congestion_label": "中度"}}, {"type": "Feature", "geometry": {"type": "Point", "coordinates": [121.59633521222251, 25.05424093800564]}, "properties": {"stop_id": "34775", "stop_name": "土地公廟", "direction": "回程", "seq": 35, "mean_err": 47.0, "max_err": 47.0, "n_events": 1, "congestion_label": "中度"}}, {"type": "Feature", "geometry": {"type": "Point", "coordinates": [121.60712, 25.05433]}, "properties": {"stop_id": "34779", "stop_name": "南港行政中心", "direction": "回程", "seq": 39, "mean_err": 5.0, "max_err": 5.0, "n_events": 1, "congestion_label": "輕微"}}, {"type": "Feature", "geometry": {"type": "Point", "coordinates": [121.56696, 25.04904]}, "properties": {"stop_id": "34766", "stop_name": "新聚里", "direction": "回程", "seq": 26, "mean_err": 245.0, "max_err": 245.0, "n_events": 1, "congestion_label": "極嚴重"}}, {"type": "Feature", "geometry": {"type": "Point", "coordinates": [121.56371383572485, 25.048702587337512]}, "properties": {"stop_id": "34765", "stop_name": "八德東寧路口", "direction": "回程", "seq": 25, "mean_err": 184.5, "max_err": 259.0, "n_events": 2, "congestion_label": "極嚴重"}}, {"type": "Feature", "geometry": {"type": "Point", "coordinates": [121.55984240587617, 25.048299945369994]}, "properties": {"stop_id": "34764", "stop_name": "臺北市區監理所", "direction": "回程", "seq": 24, "mean_err": 173.0, "max_err": 173.0, "n_events": 1, "congestion_label": "極嚴重"}}, {"type": "Feature", "geometry": {"type": "Point", "coordinates": [121.507953, 25.024607]}, "properties": {"stop_id": "171079", "stop_name": "青年公園(國興)", "direction": "去程", "seq": 55, "mean_err": 13.0, "max_err": 13.0, "n_events": 1, "congestion_label": "輕微"}}, {"type": "Feature", "geometry": {"type": "Point", "coordinates": [121.508316077824, 25.0256215629554]}, "properties": {"stop_id": "171078", "stop_name": "國興路口", "direction": "去程", "seq": 54, "mean_err": 7.0, "max_err": 7.0, "n_events": 1, "congestion_label": "輕微"}}, {"type": "Feature", "geometry": {"type": "Point", "coordinates": [121.6121944395, 25.03329549784]}, "properties": {"stop_id": "156481", "stop_name": "軍人公墓", "direction": "不分向", "seq": 3, "mean_err": -1.0, "max_err": -1.0, "n_events": 1, "congestion_label": "準時"}}, {"type": "Feature", "geometry": {"type": "Point", "coordinates": [121.6097652, 25.03382827]}, "properties": {"stop_id": "156480", "stop_name": "中華科技大學(正門)", "direction": "不分向", "seq": 1, "mean_err": 32.0, "max_err": 32.0, "n_events": 1, "congestion_label": "中度"}}, {"type": "Feature", "geometry": {"type": "Point", "coordinates": [121.6097652, 25.03382827]}, "properties": {"stop_id": "156482", "stop_name": "中華科技大學(正門)", "direction": "回程", "seq": 53, "mean_err": 23.5, "max_err": 95.0, "n_events": 2, "congestion_label": "輕微"}}, {"type": "Feature", "geometry": {"type": "Point", "coordinates": [121.61603141641, 25.0515460114719]}, "properties": {"stop_id": "34693", "stop_name": "誠正國中", "direction": "去程", "seq": 13, "mean_err": 71.0, "max_err": 71.0, "n_events": 1, "congestion_label": "嚴重"}}, {"type": "Feature", "geometry": {"type": "Point", "coordinates": [121.606693480964, 25.0544113947875]}, "properties": {"stop_id": "34697", "stop_name": "南港行政中心", "direction": "去程", "seq": 17, "mean_err": -20.0, "max_err": -20.0, "n_events": 1, "congestion_label": "準時"}}, {"type": "Feature", "geometry": {"type": "Point", "coordinates": [121.501464019539, 25.0363140633243]}, "properties": {"stop_id": "34747", "stop_name": "龍山寺(康定)", "direction": "回程", "seq": 7, "mean_err": 68.0, "max_err": 68.0, "n_events": 1, "congestion_label": "嚴重"}}, {"type": "Feature", "geometry": {"type": "Point", "coordinates": [121.501128, 25.033974]}, "properties": {"stop_id": "34746", "stop_name": "萬華車站", "direction": "回程", "seq": 6, "mean_err": -15.0, "max_err": -15.0, "n_events": 1, "congestion_label": "準時"}}, {"type": "Feature", "geometry": {"type": "Point", "coordinates": [121.51700353811, 25.0462559043502]}, "properties": {"stop_id": "34753", "stop_name": "臺北車站(忠孝)", "direction": "回程", "seq": 13, "mean_err": -1.0, "max_err": -1.0, "n_events": 1, "congestion_label": "準時"}}, {"type": "Feature", "geometry": {"type": "Point", "coordinates": [121.61603141641, 25.0515460114719]}, "properties": {"stop_id": "34693", "stop_name": "誠正國中", "direction": "不分向", "seq": 13, "mean_err": -999, "max_err": null, "n_events": 0, "congestion_label": "無資料"}}, {"type": "Feature", "geometry": {"type": "Point", "coordinates": [121.61601678871844, 25.048610235261958]}, "properties": {"stop_id": "34692", "stop_name": "南港水廠", "direction": "不分向", "seq": 12, "mean_err": -999, "max_err": null, "n_events": 0, "congestion_label": "無資料"}}, {"type": "Feature", "geometry": {"type": "Point", "coordinates": [121.615728, 25.047462]}, "properties": {"stop_id": "34691", "stop_name": "圓拱橋", "direction": "不分向", "seq": 11, "mean_err": -999, "max_err": null, "n_events": 0, "congestion_label": "無資料"}}, {"type": "Feature", "geometry": {"type": "Point", "coordinates": [121.615639, 25.045074]}, "properties": {"stop_id": "34690", "stop_name": "中研新村", "direction": "不分向", "seq": 10, "mean_err": -999, "max_err": null, "n_events": 0, "congestion_label": "無資料"}}, {"type": "Feature", "geometry": {"type": "Point", "coordinates": [121.600631965419, 25.053410287006]}, "properties": {"stop_id": "34699", "stop_name": "南港路二段178巷口", "direction": "去程", "seq": 19, "mean_err": -999, "max_err": null, "n_events": 0, "congestion_label": "無資料"}}, {"type": "Feature", "geometry": {"type": "Point", "coordinates": [121.603501503157, 25.0538268750408]}, "properties": {"stop_id": "34698", "stop_name": "台肥新村", "direction": "去程", "seq": 18, "mean_err": -999, "max_err": null, "n_events": 0, "congestion_label": "無資料"}}, {"type": "Feature", "geometry": {"type": "Point", "coordinates": [121.606693480964, 25.0544113947875]}, "properties": {"stop_id": "34697", "stop_name": "南港行政中心", "direction": "不分向", "seq": 17, "mean_err": -999, "max_err": null, "n_events": 0, "congestion_label": "無資料"}}, {"type": "Feature", "geometry": {"type": "Point", "coordinates": [121.609776304165, 25.0549683149017]}, "properties": {"stop_id": "34696", "stop_name": "南港高工(南港路)", "direction": "不分向", "seq": 16, "mean_err": -999, "max_err": null, "n_events": 0, "congestion_label": "無資料"}}, {"type": "Feature", "geometry": {"type": "Point", "coordinates": [121.61366085593893, 25.055463507638656]}, "properties": {"stop_id": "34695", "stop_name": "南港", "direction": "不分向", "seq": 15, "mean_err": -999, "max_err": null, "n_events": 0, "congestion_label": "無資料"}}, {"type": "Feature", "geometry": {"type": "Point", "coordinates": [121.6156, 25.05534]}, "properties": {"stop_id": "34694", "stop_name": "南港展覽館", "direction": "不分向", "seq": 14, "mean_err": -999, "max_err": null, "n_events": 0, "congestion_label": "無資料"}}, {"type": "Feature", "geometry": {"type": "Point", "coordinates": [121.616561, 25.043422]}, "properties": {"stop_id": "34689", "stop_name": "中研院", "direction": "不分向", "seq": 9, "mean_err": -999, "max_err": null, "n_events": 0, "congestion_label": "無資料"}}, {"type": "Feature", "geometry": {"type": "Point", "coordinates": [121.617633, 25.040597]}, "properties": {"stop_id": "34688", "stop_name": "胡適公園", "direction": "不分向", "seq": 8, "mean_err": -999, "max_err": null, "n_events": 0, "congestion_label": "無資料"}}, {"type": "Feature", "geometry": {"type": "Point", "coordinates": [121.6170236, 25.03770122]}, "properties": {"stop_id": "34687", "stop_name": "九如里一", "direction": "不分向", "seq": 7, "mean_err": -999, "max_err": null, "n_events": 0, "congestion_label": "無資料"}}, {"type": "Feature", "geometry": {"type": "Point", "coordinates": [121.61695169081, 25.035872068306]}, "properties": {"stop_id": "34686", "stop_name": "凌雲五村", "direction": "不分向", "seq": 6, "mean_err": -999, "max_err": null, "n_events": 0, "congestion_label": "無資料"}}, {"type": "Feature", "geometry": {"type": "Point", "coordinates": [121.61612, 25.034863]}, "properties": {"stop_id": "34685", "stop_name": "九如里二", "direction": "不分向", "seq": 5, "mean_err": -999, "max_err": null, "n_events": 0, "congestion_label": "無資料"}}, {"type": "Feature", "geometry": {"type": "Point", "coordinates": [121.500615375179, 25.031831103587]}, "properties": {"stop_id": "34745", "stop_name": "莒光路口", "direction": "去程", "seq": 5, "mean_err": -999, "max_err": null, "n_events": 0, "congestion_label": "無資料"}}, {"type": "Feature", "geometry": {"type": "Point", "coordinates": [121.500635, 25.0308055]}, "properties": {"stop_id": "34744", "stop_name": "萬大路", "direction": "去程", "seq": 4, "mean_err": -999, "max_err": null, "n_events": 0, "congestion_label": "無資料"}}, {"type": "Feature", "geometry": {"type": "Point", "coordinates": [121.500599, 25.028737]}, "properties": {"stop_id": "34743", "stop_name": "西藏路口", "direction": "去程", "seq": 3, "mean_err": -999, "max_err": null, "n_events": 0, "congestion_label": "無資料"}}, {"type": "Feature", "geometry": {"type": "Point", "coordinates": [121.500485, 25.025045]}, "properties": {"stop_id": "34742", "stop_name": "德昌街口", "direction": "去程", "seq": 2, "mean_err": -999, "max_err": null, "n_events": 0, "congestion_label": "無資料"}}, {"type": "Feature", "geometry": {"type": "Point", "coordinates": [121.50066027111731, 25.021489599820963]}, "properties": {"stop_id": "34740", "stop_name": "光仁國小", "direction": "去程", "seq": 61, "mean_err": -999, "max_err": null, "n_events": 0, "congestion_label": "無資料"}}, {"type": "Feature", "geometry": {"type": "Point", "coordinates": [121.502490233032, 25.0399728811606]}, "properties": {"stop_id": "34749", "stop_name": "祖師廟(貴陽)", "direction": "去程", "seq": 9, "mean_err": -999, "max_err": null, "n_events": 0, "congestion_label": "無資料"}}, {"type": "Feature", "geometry": {"type": "Point", "coordinates": [121.5019792, 25.03968147]}, "properties": {"stop_id": "34748", "stop_name": "祖師廟(康定)", "direction": "去程", "seq": 8, "mean_err": -999, "max_err": null, "n_events": 0, "congestion_label": "無資料"}}, {"type": "Feature", "geometry": {"type": "Point", "coordinates": [121.501464019539, 25.0363140633243]}, "properties": {"stop_id": "34747", "stop_name": "龍山寺(康定)", "direction": "去程", "seq": 7, "mean_err": -999, "max_err": null, "n_events": 0, "congestion_label": "無資料"}}, {"type": "Feature", "geometry": {"type": "Point", "coordinates": [121.501128, 25.033974]}, "properties": {"stop_id": "34746", "stop_name": "萬華車站", "direction": "去程", "seq": 6, "mean_err": -999, "max_err": null, "n_events": 0, "congestion_label": "無資料"}}, {"type": "Feature", "geometry": {"type": "Point", "coordinates": [121.50448356536738, 25.03205520434067]}, "properties": {"stop_id": "34731", "stop_name": "大埔街", "direction": "去程", "seq": 50, "mean_err": -999, "max_err": null, "n_events": 0, "congestion_label": "無資料"}}, {"type": "Feature", "geometry": {"type": "Point", "coordinates": [121.503183945666, 25.0248005786137]}, "properties": {"stop_id": "34737", "stop_name": "中正新城", "direction": "去程", "seq": 58, "mean_err": -999, "max_err": null, "n_events": 0, "congestion_label": "無資料"}}, {"type": "Feature", "geometry": {"type": "Point", "coordinates": [121.52277975890082, 25.045112057683003]}, "properties": {"stop_id": "34725", "stop_name": "捷運善導寺站", "direction": "去程", "seq": 44, "mean_err": -999, "max_err": null, "n_events": 0, "congestion_label": "無資料"}}, {"type": "Feature", "geometry": {"type": "Point", "coordinates": [121.52749815701229, 25.043941210409297]}, "properties": {"stop_id": "34724", "stop_name": "華山文創園區", "direction": "去程", "seq": 43, "mean_err": -999, "max_err": null, "n_events": 0, "congestion_label": "無資料"}}, {"type": "Feature", "geometry": {"type": "Point", "coordinates": [121.568426853203, 25.0493159752737]}, "properties": {"stop_id": "34710", "stop_name": "基隆路口", "direction": "去程", "seq": 30, "mean_err": -999, "max_err": null, "n_events": 0, "congestion_label": "無資料"}}, {"type": "Feature", "geometry": {"type": "Point", "coordinates": [121.5716, 25.05]}, "properties": {"stop_id": "34709", "stop_name": "饒河街觀光夜市(八德)", "direction": "去程", "seq": 29, "mean_err": -999, "max_err": null, "n_events": 0, "congestion_label": "無資料"}}, {"type": "Feature", "geometry": {"type": "Point", "coordinates": [121.580911886242, 25.0509225264878]}, "properties": {"stop_id": "34706", "stop_name": "玉成里", "direction": "去程", "seq": 26, "mean_err": -999, "max_err": null, "n_events": 0, "congestion_label": "無資料"}}, {"type": "Feature", "geometry": {"type": "Point", "coordinates": [121.611345, 25.033428]}, "properties": {"stop_id": "34793", "stop_name": "中華科技大學", "direction": "回程", "seq": 54, "mean_err": -999, "max_err": null, "n_events": 0, "congestion_label": "無資料"}}, {"type": "Feature", "geometry": {"type": "Point", "coordinates": [121.58108, 25.05082]}, "properties": {"stop_id": "34770", "stop_name": "玉成里", "direction": "回程", "seq": 30, "mean_err": -999, "max_err": null, "n_events": 0, "congestion_label": "無資料"}}, {"type": "Feature", "geometry": {"type": "Point", "coordinates": [121.5921075, 25.05408309]}, "properties": {"stop_id": "34774", "stop_name": "玉成國小", "direction": "回程", "seq": 34, "mean_err": -999, "max_err": null, "n_events": 0, "congestion_label": "無資料"}}, {"type": "Feature", "geometry": {"type": "Point", "coordinates": [121.58971, 25.05323]}, "properties": {"stop_id": "34773", "stop_name": "西新里(新新公園)", "direction": "回程", "seq": 33, "mean_err": -999, "max_err": null, "n_events": 0, "congestion_label": "無資料"}}, {"type": "Feature", "geometry": {"type": "Point", "coordinates": [121.5872289, 25.05293617]}, "properties": {"stop_id": "34772", "stop_name": "南港路三段", "direction": "回程", "seq": 32, "mean_err": -999, "max_err": null, "n_events": 0, "congestion_label": "無資料"}}, {"type": "Feature", "geometry": {"type": "Point", "coordinates": [121.584201721401, 25.052203296391]}, "properties": {"stop_id": "34771", "stop_name": "松山磚廠", "direction": "回程", "seq": 31, "mean_err": -999, "max_err": null, "n_events": 0, "congestion_label": "無資料"}}, {"type": "Feature", "geometry": {"type": "Point", "coordinates": [121.57161, 25.04976]}, "properties": {"stop_id": "34767", "stop_name": "饒河街觀光夜市(八德)", "direction": "回程", "seq": 27, "mean_err": -999, "max_err": null, "n_events": 0, "congestion_label": "無資料"}}, {"type": "Feature", "geometry": {"type": "Point", "coordinates": [121.556774902982, 25.04802340114676]}, "properties": {"stop_id": "34763", "stop_name": "光復路口", "direction": "回程", "seq": 23, "mean_err": -999, "max_err": null, "n_events": 0, "congestion_label": "無資料"}}, {"type": "Feature", "geometry": {"type": "Point", "coordinates": [121.55415, 25.048]}, "properties": {"stop_id": "34762", "stop_name": "美仁里", "direction": "回程", "seq": 22, "mean_err": -999, "max_err": null, "n_events": 0, "congestion_label": "無資料"}}, {"type": "Feature", "geometry": {"type": "Point", "coordinates": [121.551053453852, 25.0481637080101]}, "properties": {"stop_id": "34761", "stop_name": "臺視", "direction": "回程", "seq": 21, "mean_err": -999, "max_err": null, "n_events": 0, "congestion_label": "無資料"}}, {"type": "Feature", "geometry": {"type": "Point", "coordinates": [121.5462971, 25.04814244]}, "properties": {"stop_id": "34760", "stop_name": "臺安醫院", "direction": "回程", "seq": 20, "mean_err": -999, "max_err": null, "n_events": 0, "congestion_label": "無資料"}}, {"type": "Feature", "geometry": {"type": "Point", "coordinates": [121.577246475627, 25.0499755097464]}, "properties": {"stop_id": "34769", "stop_name": "松山車站(八德)", "direction": "回程", "seq": 29, "mean_err": -999, "max_err": null, "n_events": 0, "congestion_label": "無資料"}}, {"type": "Feature", "geometry": {"type": "Point", "coordinates": [121.573848311551, 25.0499024516685]}, "properties": {"stop_id": "34768", "stop_name": "松山農會", "direction": "回程", "seq": 28, "mean_err": -999, "max_err": null, "n_events": 0, "congestion_label": "無資料"}}, {"type": "Feature", "geometry": {"type": "Point", "coordinates": [121.532172463125, 25.0440991830962]}, "properties": {"stop_id": "34756", "stop_name": "臺北科技大學", "direction": "回程", "seq": 16, "mean_err": -999, "max_err": null, "n_events": 0, "congestion_label": "無資料"}}, {"type": "Feature", "geometry": {"type": "Point", "coordinates": [121.52631480425094, 25.04393012352479]}, "properties": {"stop_id": "34755", "stop_name": "華山文創園區", "direction": "去程", "seq": 15, "mean_err": -999, "max_err": null, "n_events": 0, "congestion_label": "無資料"}}, {"type": "Feature", "geometry": {"type": "Point", "coordinates": [121.522629, 25.044844]}, "properties": {"stop_id": "34754", "stop_name": "捷運善導寺站", "direction": "去程", "seq": 14, "mean_err": -999, "max_err": null, "n_events": 0, "congestion_label": "無資料"}}, {"type": "Feature", "geometry": {"type": "Point", "coordinates": [121.51700353811, 25.0462559043502]}, "properties": {"stop_id": "34753", "stop_name": "臺北車站(忠孝)", "direction": "去程", "seq": 13, "mean_err": -999, "max_err": null, "n_events": 0, "congestion_label": "無資料"}}, {"type": "Feature", "geometry": {"type": "Point", "coordinates": [121.509380726049, 25.0456964941835]}, "properties": {"stop_id": "34752", "stop_name": "中華路北站", "direction": "去程", "seq": 12, "mean_err": -999, "max_err": null, "n_events": 0, "congestion_label": "無資料"}}, {"type": "Feature", "geometry": {"type": "Point", "coordinates": [121.508285900629, 25.041730058378]}, "properties": {"stop_id": "34751", "stop_name": "捷運西門站", "direction": "去程", "seq": 11, "mean_err": -999, "max_err": null, "n_events": 0, "congestion_label": "無資料"}}, {"type": "Feature", "geometry": {"type": "Point", "coordinates": [121.50582384788, 25.03944952637]}, "properties": {"stop_id": "34750", "stop_name": "貴陽街", "direction": "去程", "seq": 10, "mean_err": -999, "max_err": null, "n_events": 0, "congestion_label": "無資料"}}, {"type": "Feature", "geometry": {"type": "Point", "coordinates": [121.54312, 25.0472080804531]}, "properties": {"stop_id": "34759", "stop_name": "中崙", "direction": "回程", "seq": 19, "mean_err": -999, "max_err": null, "n_events": 0, "congestion_label": "無資料"}}, {"type": "Feature", "geometry": {"type": "Point", "coordinates": [121.5408273, 25.04670644]}, "properties": {"stop_id": "34758", "stop_name": "中影八德大樓", "direction": "回程", "seq": 18, "mean_err": -999, "max_err": null, "n_events": 0, "congestion_label": "無資料"}}, {"type": "Feature", "geometry": {"type": "Point", "coordinates": [121.53745340737642, 25.046123735201252]}, "properties": {"stop_id": "34757", "stop_name": "進安公園", "direction": "回程", "seq": 17, "mean_err": -999, "max_err": null, "n_events": 0, "congestion_label": "無資料"}}, {"type": "Feature", "geometry": {"type": "Point", "coordinates": [121.6121944395, 25.03329549784]}, "properties": {"stop_id": "156483", "stop_name": "軍人公墓", "direction": "回程", "seq": 55, "mean_err": -999, "max_err": null, "n_events": 0, "congestion_label": "無資料"}}, {"type": "Feature", "geometry": {"type": "Point", "coordinates": [121.603501503157, 25.0538268750408]}, "properties": {"stop_id": "34698", "stop_name": "台肥新村", "direction": "不分向", "seq": 18, "mean_err": -999, "max_err": null, "n_events": 0, "congestion_label": "無資料"}}, {"type": "Feature", "geometry": {"type": "Point", "coordinates": [121.61601678871844, 25.048610235261958]}, "properties": {"stop_id": "34692", "stop_name": "南港水廠", "direction": "去程", "seq": 12, "mean_err": -999, "max_err": null, "n_events": 0, "congestion_label": "無資料"}}, {"type": "Feature", "geometry": {"type": "Point", "coordinates": [121.615728, 25.047462]}, "properties": {"stop_id": "34691", "stop_name": "圓拱橋", "direction": "去程", "seq": 11, "mean_err": -999, "max_err": null, "n_events": 0, "congestion_label": "無資料"}}, {"type": "Feature", "geometry": {"type": "Point", "coordinates": [121.615639, 25.045074]}, "properties": {"stop_id": "34690", "stop_name": "中研新村", "direction": "去程", "seq": 10, "mean_err": -999, "max_err": null, "n_events": 0, "congestion_label": "無資料"}}, {"type": "Feature", "geometry": {"type": "Point", "coordinates": [121.609776304165, 25.0549683149017]}, "properties": {"stop_id": "34696", "stop_name": "南港高工(南港路)", "direction": "去程", "seq": 16, "mean_err": -999, "max_err": null, "n_events": 0, "congestion_label": "無資料"}}, {"type": "Feature", "geometry": {"type": "Point", "coordinates": [121.61366085593893, 25.055463507638656]}, "properties": {"stop_id": "34695", "stop_name": "南港", "direction": "去程", "seq": 15, "mean_err": -999, "max_err": null, "n_events": 0, "congestion_label": "無資料"}}, {"type": "Feature", "geometry": {"type": "Point", "coordinates": [121.6156, 25.05534]}, "properties": {"stop_id": "34694", "stop_name": "南港展覽館", "direction": "去程", "seq": 14, "mean_err": -999, "max_err": null, "n_events": 0, "congestion_label": "無資料"}}, {"type": "Feature", "geometry": {"type": "Point", "coordinates": [121.616561, 25.043422]}, "properties": {"stop_id": "34689", "stop_name": "中研院", "direction": "去程", "seq": 9, "mean_err": -999, "max_err": null, "n_events": 0, "congestion_label": "無資料"}}, {"type": "Feature", "geometry": {"type": "Point", "coordinates": [121.617633, 25.040597]}, "properties": {"stop_id": "34688", "stop_name": "胡適公園", "direction": "去程", "seq": 8, "mean_err": -999, "max_err": null, "n_events": 0, "congestion_label": "無資料"}}, {"type": "Feature", "geometry": {"type": "Point", "coordinates": [121.6170236, 25.03770122]}, "properties": {"stop_id": "34687", "stop_name": "九如里一", "direction": "去程", "seq": 7, "mean_err": -999, "max_err": null, "n_events": 0, "congestion_label": "無資料"}}, {"type": "Feature", "geometry": {"type": "Point", "coordinates": [121.61695169081, 25.035872068306]}, "properties": {"stop_id": "34686", "stop_name": "凌雲五村", "direction": "去程", "seq": 6, "mean_err": -999, "max_err": null, "n_events": 0, "congestion_label": "無資料"}}, {"type": "Feature", "geometry": {"type": "Point", "coordinates": [121.61612, 25.034863]}, "properties": {"stop_id": "34685", "stop_name": "九如里二", "direction": "去程", "seq": 5, "mean_err": -999, "max_err": null, "n_events": 0, "congestion_label": "無資料"}}, {"type": "Feature", "geometry": {"type": "Point", "coordinates": [121.61448946069, 25.0346121838879]}, "properties": {"stop_id": "34684", "stop_name": "凌雲站", "direction": "去程", "seq": 4, "mean_err": -999, "max_err": null, "n_events": 0, "congestion_label": "無資料"}}, {"type": "Feature", "geometry": {"type": "Point", "coordinates": [121.6121944395, 25.03329549784]}, "properties": {"stop_id": "156481", "stop_name": "軍人公墓", "direction": "去程", "seq": 3, "mean_err": -999, "max_err": null, "n_events": 0, "congestion_label": "無資料"}}, {"type": "Feature", "geometry": {"type": "Point", "coordinates": [121.532172463125, 25.0440991830962]}, "properties": {"stop_id": "34756", "stop_name": "臺北科技大學", "direction": "去程", "seq": 16, "mean_err": -999, "max_err": null, "n_events": 0, "congestion_label": "無資料"}}, {"type": "Feature", "geometry": {"type": "Point", "coordinates": [121.500615375179, 25.031831103587]}, "properties": {"stop_id": "34745", "stop_name": "莒光路口", "direction": "回程", "seq": 5, "mean_err": -999, "max_err": null, "n_events": 0, "congestion_label": "無資料"}}, {"type": "Feature", "geometry": {"type": "Point", "coordinates": [121.500635, 25.0308055]}, "properties": {"stop_id": "34744", "stop_name": "萬大路", "direction": "回程", "seq": 4, "mean_err": -999, "max_err": null, "n_events": 0, "congestion_label": "無資料"}}, {"type": "Feature", "geometry": {"type": "Point", "coordinates": [121.500599, 25.028737]}, "properties": {"stop_id": "34743", "stop_name": "西藏路口", "direction": "回程", "seq": 3, "mean_err": -999, "max_err": null, "n_events": 0, "congestion_label": "無資料"}}, {"type": "Feature", "geometry": {"type": "Point", "coordinates": [121.502490233032, 25.0399728811606]}, "properties": {"stop_id": "34749", "stop_name": "祖師廟(貴陽)", "direction": "回程", "seq": 9, "mean_err": -999, "max_err": null, "n_events": 0, "congestion_label": "無資料"}}, {"type": "Feature", "geometry": {"type": "Point", "coordinates": [121.5019792, 25.03968147]}, "properties": {"stop_id": "34748", "stop_name": "祖師廟(康定)", "direction": "回程", "seq": 8, "mean_err": -999, "max_err": null, "n_events": 0, "congestion_label": "無資料"}}, {"type": "Feature", "geometry": {"type": "Point", "coordinates": [121.52631480425094, 25.04393012352479]}, "properties": {"stop_id": "34755", "stop_name": "華山文創園區", "direction": "回程", "seq": 15, "mean_err": -999, "max_err": null, "n_events": 0, "congestion_label": "無資料"}}, {"type": "Feature", "geometry": {"type": "Point", "coordinates": [121.522629, 25.044844]}, "properties": {"stop_id": "34754", "stop_name": "捷運善導寺站", "direction": "回程", "seq": 14, "mean_err": -999, "max_err": null, "n_events": 0, "congestion_label": "無資料"}}, {"type": "Feature", "geometry": {"type": "Point", "coordinates": [121.509380726049, 25.0456964941835]}, "properties": {"stop_id": "34752", "stop_name": "中華路北站", "direction": "回程", "seq": 12, "mean_err": -999, "max_err": null, "n_events": 0, "congestion_label": "無資料"}}, {"type": "Feature", "geometry": {"type": "Point", "coordinates": [121.508285900629, 25.041730058378]}, "properties": {"stop_id": "34751", "stop_name": "捷運西門站", "direction": "回程", "seq": 11, "mean_err": -999, "max_err": null, "n_events": 0, "congestion_label": "無資料"}}, {"type": "Feature", "geometry": {"type": "Point", "coordinates": [121.50582384788, 25.03944952637]}, "properties": {"stop_id": "34750", "stop_name": "貴陽街", "direction": "回程", "seq": 10, "mean_err": -999, "max_err": null, "n_events": 0, "congestion_label": "無資料"}}, {"type": "Feature", "geometry": {"type": "Point", "coordinates": [121.500485, 25.025045]}, "properties": {"stop_id": "34742", "stop_name": "德昌街口", "direction": "回程", "seq": 2, "mean_err": -999, "max_err": null, "n_events": 0, "congestion_label": "無資料"}}, {"type": "Feature", "geometry": {"type": "Point", "coordinates": [121.611345, 25.033428]}, "properties": {"stop_id": "34683", "stop_name": "中華科技大學", "direction": "去程", "seq": 2, "mean_err": -999, "max_err": null, "n_events": 0, "congestion_label": "無資料"}}]}